FENGYUN 1C DEB          
1 36177U 99025DTA 17341.92380836  .00000508  00000-0  30708-3 0  9998
2 36177  98.9033  37.7450 0043251 247.5191 112.1397 14.10629449227340
